{
  "type": "FeatureCollection",
  "features": [
    {
      "type": "Feature",
      "properties": {
        "norad_id": 28899,
        "name": "INMARSAT 4-F2 (SOUTHPAN/PRN 122)",
        "group": "gnss",
        "lat": -3.7289331731425177,
        "lon": -86.39037295304236,
        "alt_km": 35773.09356047876,
        "timestamp": "2025-12-04T03:47:54.787542+00:00",
        "meta_object_name": "INMARSAT 4-F2 (SOUTHPAN/PRN 122)",
        "meta_object_id": "2005-044A",
        "meta_epoch": "2025-12-03T14:26:13.284960",
        "meta_mean_motion": 1.00270861,
        "meta_eccentricity": 0.0003476,
        "meta_inclination": 4.8401,
        "meta_ra_of_asc_node": 43.6613,
        "meta_arg_of_pericenter": 209.4506,
        "meta_mean_anomaly": 179.6299,
        "meta_ephemeris_type": 0,
        "meta_classification_type": "U",
        "meta_norad_cat_id": 28899,
        "meta_element_set_no": 999,
        "meta_rev_at_epoch": 7356,
        "meta_bstar": 0,
        "meta_mean_motion_dot": -2.46e-06,
        "meta_mean_motion_ddot": 0,
        "tle_line1": "1 28899U 05044A   25337.60154265 -.00000246  00000+0  00000+0 0  9999",
        "tle_line2": "2 28899   4.8401  43.6613 0003476 209.4506 179.6299  1.00270861 73563"
      },
      "geometry": {
        "type": "Point",
        "coordinates": [
          -86.39037295304236,
          -3.7289331731425177
        ]
      }
    },
    {
      "type": "Feature",
      "properties": {
        "norad_id": 29486,
        "name": "GPS BIIRM-2 (PRN 31)",
        "group": "gnss",
        "lat": 53.157738116165895,
        "lon": -129.76160636992813,
        "alt_km": 19922.111292955866,
        "timestamp": "2025-12-04T03:47:54.787554+00:00",
        "meta_object_name": "GPS BIIRM-2 (PRN 31)",
        "meta_object_id": "2006-042A",
        "meta_epoch": "2025-12-03T13:14:46.148064",
        "meta_mean_motion": 2.00554404,
        "meta_eccentricity": 0.0107359,
        "meta_inclination": 54.6928,
        "meta_ra_of_asc_node": 159.1054,
        "meta_arg_of_pericenter": 51.7394,
        "meta_mean_anomaly": 308.7586,
        "meta_ephemeris_type": 0,
        "meta_classification_type": "U",
        "meta_norad_cat_id": 29486,
        "meta_element_set_no": 999,
        "meta_rev_at_epoch": 14046,
        "meta_bstar": 0,
        "meta_mean_motion_dot": 1.04e-06,
        "meta_mean_motion_ddot": 0,
        "tle_line1": "1 29486U 06042A   25337.55192301  .00000104  00000+0  00000+0 0  9990",
        "tle_line2": "2 29486  54.6928 159.1054 0107359  51.7394 308.7586  2.00554404140460"
      },
      "geometry": {
        "type": "Point",
        "coordinates": [
          -129.76160636992813,
          53.157738116165895
        ]
      }
    },
    {
      "type": "Feature",
      "properties": {
        "norad_id": 29601,
        "name": "GPS BIIRM-3 (PRN 12)",
        "group": "gnss",
        "lat": 34.61813686870168,
        "lon": 12.82176598709663,
        "alt_km": 20022.817524843536,
        "timestamp": "2025-12-04T03:47:54.787566+00:00",
        "meta_object_name": "GPS BIIRM-3 (PRN 12)",
        "meta_object_id": "2006-052A",
        "meta_epoch": "2025-12-03T11:22:11.769312",
        "meta_mean_motion": 2.00572797,
        "meta_eccentricity": 0.0087547,
        "meta_inclination": 54.9733,
        "meta_ra_of_asc_node": 221.7659,
        "meta_arg_of_pericenter": 87.3435,
        "meta_mean_anomaly": 273.7468,
        "meta_ephemeris_type": 0,
        "meta_classification_type": "U",
        "meta_norad_cat_id": 29601,
        "meta_element_set_no": 999,
        "meta_rev_at_epoch": 13948,
        "meta_bstar": 0,
        "meta_mean_motion_dot": 6.2e-07,
        "meta_mean_motion_ddot": 0,
        "tle_line1": "1 29601U 06052A   25337.47374733  .00000062  00000+0  00000+0 0  9995",
        "tle_line2": "2 29601  54.9733 221.7659 0087547  87.3435 273.7468  2.00572797139485"
      },
      "geometry": {
        "type": "Point",
        "coordinates": [
          12.82176598709663,
          34.61813686870168
        ]
      }
    },
    {
      "type": "Feature",
      "properties": {
        "norad_id": 32260,
        "name": "GPS BIIRM-4 (PRN 15)",
        "group": "gnss",
        "lat": -53.626427285648575,
        "lon": 7.076380997644428,
        "alt_km": 20616.61261433278,
        "timestamp": "2025-12-04T03:47:54.787578+00:00",
        "meta_object_name": "GPS BIIRM-4 (PRN 15)",
        "meta_object_id": "2007-047A",
        "meta_epoch": "2025-12-02T18:46:05.230272",
        "meta_mean_motion": 2.00564824,
        "meta_eccentricity": 0.01643753,
        "meta_inclination": 53.9483,
        "meta_ra_of_asc_node": 88.1698,
        "meta_arg_of_pericenter": 85.1293,
        "meta_mean_anomaly": 276.722,
        "meta_ephemeris_type": 0,
        "meta_classification_type": "U",
        "meta_norad_cat_id": 32260,
        "meta_element_set_no": 999,
        "meta_rev_at_epoch": 13287,
        "meta_bstar": 0,
        "meta_mean_motion_dot": -1.7e-07,
        "meta_mean_motion_ddot": 0,
        "tle_line1": "1 32260U 07047A   25336.78200498 -.00000017  00000+0  00000+0 0  9995",
        "tle_line2": "2 32260  53.9483  88.1698 0164375  85.1293 276.7220  2.00564824132879"
      },
      "geometry": {
        "type": "Point",
        "coordinates": [
          7.076380997644428,
          -53.626427285648575
        ]
      }
    },
    {
      "type": "Feature",
      "properties": {
        "norad_id": 32275,
        "name": "COSMOS 2433 (720)",
        "group": "gnss",
        "lat": -10.614718368938012,
        "lon": -42.37522602130958,
        "alt_km": 19133.108402316564,
        "timestamp": "2025-12-04T03:47:54.787590+00:00",
        "meta_object_name": "COSMOS 2433 (720)",
        "meta_object_id": "2007-052A",
        "meta_epoch": "2025-12-02T18:22:37.547904",
        "meta_mean_motion": 2.13103908,
        "meta_eccentricity": 0.0005557,
        "meta_inclination": 65.6886,
        "meta_ra_of_asc_node": 322.5409,
        "meta_arg_of_pericenter": 252.4107,
        "meta_mean_anomaly": 107.5368,
        "meta_ephemeris_type": 0,
        "meta_classification_type": "U",
        "meta_norad_cat_id": 32275,
        "meta_element_set_no": 999,
        "meta_rev_at_epoch": 14087,
        "meta_bstar": 0,
        "meta_mean_motion_dot": -3.5e-07,
        "meta_mean_motion_ddot": 0,
        "tle_line1": "1 32275U 07052A   25336.76571236 -.00000035  00000+0  00000+0 0  9996",
        "tle_line2": "2 32275  65.6886 322.5409 0005557 252.4107 107.5368  2.13103908140875"
      },
      "geometry": {
        "type": "Point",
        "coordinates": [
          -42.37522602130958,
          -10.614718368938012
        ]
      }
    },
    {
      "type": "Feature",
      "properties": {
        "norad_id": 32276,
        "name": "COSMOS 2432 (719)",
        "group": "gnss",
        "lat": -57.187536776118364,
        "lon": -81.87798864734737,
        "alt_km": 19108.847677317633,
        "timestamp": "2025-12-04T03:47:54.787601+00:00",
        "meta_object_name": "COSMOS 2432 (719)",
        "meta_object_id": "2007-052B",
        "meta_epoch": "2025-12-01T01:47:57.960960",
        "meta_mean_motion": 2.13103067,
        "meta_eccentricity": 0.00112256,
        "meta_inclination": 65.7054,
        "meta_ra_of_asc_node": 322.7218,
        "meta_arg_of_pericenter": 311.1678,
        "meta_mean_anomaly": 136.2023,
        "meta_ephemeris_type": 0,
        "meta_classification_type": "U",
        "meta_norad_cat_id": 32276,
        "meta_element_set_no": 999,
        "meta_rev_at_epoch": 14086,
        "meta_bstar": 0,
        "meta_mean_motion_dot": -2.4e-07,
        "meta_mean_motion_ddot": 0,
        "tle_line1": "1 32276U 07052B   25335.07497640 -.00000024  00000+0  00000+0 0  9994",
        "tle_line2": "2 32276  65.7054 322.7218 0011225 311.1678 136.2023  2.13103067140861"
      },
      "geometry": {
        "type": "Point",
        "coordinates": [
          -81.87798864734737,
          -57.187536776118364
        ]
      }
    },
    {
      "type": "Feature",
      "properties": {
        "norad_id": 32384,
        "name": "GPS BIIRM-5 (PRN 29)",
        "group": "gnss",
        "lat": 34.89469241958567,
        "lon": -49.04195326737568,
        "alt_km": 20217.606625211003,
        "timestamp": "2025-12-04T03:47:54.787633+00:00",
        "meta_object_name": "GPS BIIRM-5 (PRN 29)",
        "meta_object_id": "2007-062A",
        "meta_epoch": "2025-12-02T20:24:02.738880",
        "meta_mean_motion": 2.00576658,
        "meta_eccentricity": 0.00322118,
        "meta_inclination": 55.191,
        "meta_ra_of_asc_node": 282.0427,
        "meta_arg_of_pericenter": 162.849,
        "meta_mean_anomaly": 16.9412,
        "meta_ephemeris_type": 0,
        "meta_classification_type": "U",
        "meta_norad_cat_id": 32384,
        "meta_element_set_no": 999,
        "meta_rev_at_epoch": 13157,
        "meta_bstar": 0,
        "meta_mean_motion_dot": -4.3e-07,
        "meta_mean_motion_ddot": 0,
        "tle_line1": "1 32384U 07062A   25336.85003170 -.00000043  00000+0  00000+0 0  9994",
        "tle_line2": "2 32384  55.1910 282.0427 0032211 162.8490  16.9412  2.00576658131576"
      },
      "geometry": {
        "type": "Point",
        "coordinates": [
          -49.04195326737568,
          34.89469241958567
        ]
      }
    }
  ]
}